     2.10           G: GLONASS NAV DATA                     RINEX VERSION / TYPE
teqc  2015Jun23                         20211027 01:25:46UTCPGM / RUN BY / DATE
Linux 2.4.21-27.ELsmp|Opteron|gcc -static|Linux x86_64|=+   COMMENT
  2021    10     3   -1.396983861923D-09                    CORR TO SYSTEM TIME
                                                            END OF HEADER
 7 21 10  4  6 15  0.0-4.084222018719D-05 0.000000000000D+00 2.160000000000D+04
    8.838793945312D+03-2.374455451965D+00 1.862645149231D-09 0.000000000000D+00
    1.408771630859D+04-1.171011924744D+00 4.656612873077D-09 5.000000000000D+00
    1.938993359375D+04 1.931622505188D+00-1.862645149231D-09 0.000000000000D+00
 9 21 10  4  6 15  0.0 1.648999750614D-05 2.728484105319D-12 2.160000000000D+04
   -1.791042773438D+04-6.049633026123D-01 2.793967723846D-09 0.000000000000D+00
    1.715032177734D+04 5.915107727051D-01 0.000000000000D+00-2.000000000000D+00
   -6.116661132812D+03 3.410801887512D+00 0.000000000000D+00 0.000000000000D+00
21 21 10  4  6 15  0.0-2.441182732582D-04-3.637978807092D-12 2.160000000000D+04
    2.810492187500D+03 2.485656738281D-01 2.793967723846D-09 0.000000000000D+00
    2.531303613281D+04 1.161441802979D-01 4.656612873077D-09 4.000000000000D+00
    1.009898437500D+03-3.605134963989D+00 9.313225746155D-10 0.000000000000D+00
22 21 10  4  6 15  0.0-1.368829980493D-04-1.818989403546D-12 2.238000000000D+04
    8.766189941406D+03 3.728075027466D-01 1.862645149231D-09 0.000000000000D+00
    1.763952880859D+04 2.203914642334D+00 4.656612873077D-09-3.000000000000D+00
    1.624429736328D+04-2.584387779236D+00-9.313225746155D-10 0.000000000000D+00
20 21 10  4  6 45  0.0-5.695596337318D-05-0.000000000000D+00 2.340000000000D+04
   -6.759699707031D+03-4.340839385986D-01 9.313225746155D-10 0.000000000000D+00
    1.321480664062D+04-2.816226959229D+00-0.000000000000D+00 2.000000000000D+00
   -2.074648388672D+04-1.648997306824D+00 1.862645149231D-09 0.000000000000D+00
 7 21 10  4  6 45  0.0-4.084035754204D-05 0.000000000000D+00 2.340000000000D+04
    4.083578613281D+03-2.871346473694D+00 1.862645149231D-09 0.000000000000D+00
    1.218042431641D+04-9.157609939575D-01 2.793967723846D-09 5.000000000000D+00
    2.207579003906D+04 1.033318519592D+00-1.862645149231D-09 0.000000000000D+00
10 21 10  4  6 45  0.0-7.562246173620D-05-0.000000000000D+00 2.340000000000D+04
   -8.622970703125D+03-1.416937828064D+00 1.862645149231D-09 0.000000000000D+00
    1.853583447266D+04 1.533679008484D+00 0.000000000000D+00-7.000000000000D+00
   -1.520902246094D+04 2.678884506226D+00 1.862645149231D-09 0.000000000000D+00
 9 21 10  4  6 45  0.0 1.649465411901D-05 2.728484105319D-12 2.340000000000D+04
   -1.834939843750D+04 9.660720825195D-02 2.793967723846D-09 0.000000000000D+00
    1.777491699219D+04 6.829643249512D-02-0.000000000000D+00-2.000000000000D+00
    1.793208007812D+02 3.539476394653D+00-0.000000000000D+00 0.000000000000D+00
16 21 10  4  6 45  0.0-2.257060259581D-05-9.094947017729D-13 2.340000000000D+04
   -1.853731445312D+04 1.573291778564D+00 1.862645149231D-09 0.000000000000D+00
    7.828169921875D+03-1.453959465027D+00-9.313225746155D-10-1.000000000000D+00
    1.557802783203D+04 2.612171173096D+00-1.862645149231D-09 0.000000000000D+00
21 21 10  4  6 45  0.0-2.441238611937D-04-2.728484105319D-12 2.340000000000D+04
    3.124186523438D+03 5.895137786865D-02 3.725290298462D-09 0.000000000000D+00
    2.470636035156D+04-7.784700393677D-01 3.725290298462D-09 4.000000000000D+00
   -5.434434570312D+03-3.508625030518D+00 1.862645149231D-09 0.000000000000D+00
22 21 10  4  6 45  0.0-1.368867233396D-04-9.094947017729D-13 2.340000000000D+04
    9.627722656250D+03 5.456542968750D-01 3.725290298462D-09 0.000000000000D+00
    2.093167138672D+04 1.428164482117D+00 4.656612873077D-09-3.000000000000D+00
    1.102630322266D+04-3.175752639771D+00-0.000000000000D+00 0.000000000000D+00
10 21 10  4  7 15  0.0-7.562432438135D-05-0.000000000000D+00 2.520000000000D+04
   -1.055143115234D+04-7.319211959839D-01 2.793967723846D-09 0.000000000000D+00
    2.098604394531D+04 1.144760131836D+00-0.000000000000D+00-7.000000000000D+00
   -9.859509277344D+03 3.226351737976D+00 9.313225746155D-10 0.000000000000D+00
22 21 10  4  7 15  0.0-1.368895173073D-04-9.094947017729D-13 2.520000000000D+04
    1.057947851562D+04 4.682483673096D-01 4.656612873077D-09 0.000000000000D+00
    2.272192724609D+04 5.545301437378D-01 3.725290298462D-09-3.000000000000D+00
    4.959001953125D+03-3.522059440613D+00 0.000000000000D+00 0.000000000000D+00
 9 21 10  4  7 15  0.0 1.649837940931D-05 2.728484105319D-12 2.520000000000D+04
   -1.766316210938D+04 6.316919326782D-01 1.862645149231D-09 0.000000000000D+00
    1.729542041016D+04-6.218175888062D-01-9.313225746155D-10-2.000000000000D+00
    6.461550292969D+03 3.395676612854D+00-9.313225746155D-10 0.000000000000D+00
21 21 10  4  7 15  0.0-2.441294491291D-04-2.728484105319D-12 2.520000000000D+04
    2.888064453125D+03-3.536615371704D-01 2.793967723846D-09 0.000000000000D+00
    2.258720703125D+04-1.546034812927D+00 1.862645149231D-09 4.000000000000D+00
   -1.145760546875D+04-3.140251159668D+00 1.862645149231D-09 0.000000000000D+00
20 21 10  4  7 15  0.0-5.695689469576D-05-0.000000000000D+00 2.523000000000D+04
   -8.011402343750D+03-9.572839736938D-01-0.000000000000D+00 0.000000000000D+00
    7.941436523438D+03-2.990508079529D+00-9.313225746155D-10 2.000000000000D+00
   -2.287441796875D+04-6.999406814575D-01 1.862645149231D-09 0.000000000000D+00
 7 21 10  4  7 15  0.0-4.083942621946D-05 0.000000000000D+00 2.547000000000D+04
   -1.340968750000D+03-3.107728004456D+00 1.862645149231D-09 0.000000000000D+00
    1.088254785156D+04-5.087451934814D-01 9.313225746155D-10 5.000000000000D+00
    2.306173291016D+04 5.497741699219D-02-2.793967723846D-09 0.000000000000D+00
10 21 10  4  7 45  0.0-7.562618702650D-05-9.094947017729D-13 2.700000000000D+04
   -1.131193750000D+04-1.363296508789D-01 2.793967723846D-09 0.000000000000D+00
    2.251251220703D+04 5.164766311646D-01-9.313225746155D-10-7.000000000000D+00
   -3.744665527344D+03 3.523632049561D+00 0.000000000000D+00 0.000000000000D+00
22 21 10  4  7 45  0.0-1.368923112750D-04-9.094947017729D-13 2.700000000000D+04
    1.115903027344D+04 1.350975036621D-01 4.656612873077D-09 0.000000000000D+00
    2.294096289062D+04-2.976751327515D-01 2.793967723846D-09-3.000000000000D+00
   -1.489975097656D+03-3.597167968750D+00 9.313225746155D-10 0.000000000000D+00
 9 21 10  4  7 45  0.0 1.650303602219D-05 2.728484105319D-12 2.700000000000D+04
   -1.621423144531D+04 9.366207122803D-01 1.862645149231D-09 0.000000000000D+00
    1.549212451172D+04-1.385142326355D+00-1.862645149231D-09-2.000000000000D+00
    1.224663085938D+04 2.990668296814D+00-1.862645149231D-09 0.000000000000D+00
21 21 10  4  7 45  0.0-2.441350370646D-04-2.728484105319D-12 2.700000000000D+04
    1.759413574219D+03-9.179153442383D-01 2.793967723846D-09 0.000000000000D+00
    1.927537402344D+04-2.090278625488D+00 0.000000000000D+00 4.000000000000D+00
   -1.659310302734D+04-2.528786659241D+00 1.862645149231D-09 0.000000000000D+00
10 21 10  4  8 15  0.0-7.562804967165D-05-9.094947017729D-13 2.880000000000D+04
   -1.115049365234D+04 2.799701690674D-01 1.862645149231D-09 0.000000000000D+00
    2.274557031250D+04-2.771224975586D-01-1.862645149231D-09-7.000000000000D+00
    2.660975097656D+03 3.547319412231D+00-0.000000000000D+00 0.000000000000D+00
22 21 10  4  8 15  0.0-1.368951052427D-04-9.094947017729D-13 2.880000000000D+04
    1.093589501953D+04-4.132652282715D-01 3.725290298462D-09 0.000000000000D+00
    2.173155810547D+04-1.015265464783D+00 9.313225746155D-10-3.000000000000D+00
   -7.824371582031D+03-3.395596504211D+00 1.862645149231D-09 0.000000000000D+00
 9 21 10  4  8 15  0.0 1.650769263506D-05 2.728484105319D-12 2.880000000000D+04
   -1.444409667969D+04 9.884262084961D-01 9.313225746155D-10 0.000000000000D+00
    1.233072851562D+04-2.112160682678D+00-1.862645149231D-09-2.000000000000D+00
    1.708952343750D+04 2.355528831482D+00-1.862645149231D-09 0.000000000000D+00
21 21 10  4  8 15  0.0-2.441406250000D-04-2.728484105319D-12 2.880000000000D+04
   -4.470131835938D+02-1.532707214355D+00 9.313225746155D-10 0.000000000000D+00
    1.523298681641D+04-2.351441383362D+00-0.000000000000D+00 4.000000000000D+00
   -2.044367626953D+04-1.721894264221D+00 2.793967723846D-09 0.000000000000D+00
 7 21 10  4  8 15  0.0-4.083849489689D-05 0.000000000000D+00 2.901000000000D+04
   -1.211235351562D+04-2.677941322327D+00 0.000000000000D+00 0.000000000000D+00
    1.067381640625D+04 3.567132949829D-01-1.862645149231D-09 5.000000000000D+00
    1.976193261719D+04-1.841201782227D+00-1.862645149231D-09 0.000000000000D+00
23 21 10  4  8 15  0.0-1.538544893265D-05-9.094947017729D-13 2.982000000000D+04
    1.687139062500D+04 1.206710815430D+00 4.656612873077D-09 0.000000000000D+00
    1.384925439453D+04 1.364850044250D+00 2.793967723846D-09 3.000000000000D+00
    1.318352343750D+04-2.977068901062D+00-0.000000000000D+00 0.000000000000D+00
10 21 10  4  8 45  0.0-7.562991231680D-05-9.094947017729D-13 3.060000000000D+04
   -1.044584228516D+04 4.614162445068D-01 9.313225746155D-10 0.000000000000D+00
    2.147748291016D+04-1.132604598999D+00-1.862645149231D-09-7.000000000000D+00
    8.859961914062D+03 3.295535087585D+00-9.313225746155D-10 0.000000000000D+00
 7 21 10  4  8 45  0.0-4.083849489689D-05 0.000000000000D+00 3.060000000000D+04
   -1.641200000000D+04-2.063997268677D+00-0.000000000000D+00 0.000000000000D+00
    1.157366601562D+04 6.110134124756D-01-2.793967723846D-09 5.000000000000D+00
    1.572723144531D+04-2.612876892090D+00-1.862645149231D-09 0.000000000000D+00
 9 21 10  4  8 45  0.0 1.651234924793D-05 2.728484105319D-12 3.060000000000D+04
   -1.279604882812D+04 8.080005645752D-01-0.000000000000D+00 0.000000000000D+00
    7.975154785156D+03-2.695150375366D+00-1.862645149231D-09-2.000000000000D+00
    2.061730029297D+04 1.538800239563D+00-2.793967723846D-09 0.000000000000D+00
